CUBEBUG-2 (LO-74)       
1 39440U 13066AA  26068.83168078  .00006310  00000+0  59321-3 0  9991
2 39440  97.8812  17.5050 0058705 358.4894   1.6138 14.92958446662163
STARLINK-36106          
1 67018U 25293R   26068.50718031  .00003843  00000+0  32958-3 0  9997
2 67018  70.0003  94.7881 0003263 267.9100  92.1685 14.98345506 14865
